{"type": "FeatureCollection", "features": [ {"type": "Feature", "properties": {"norad_id": 31091, "name": "FENGYUN 1C DEB", "group": "fengyun-1c-debris", "lat": -2.763469361578387, "lon": -26.87762662610607, "alt_km": 924.6043873666576, "timestamp": "2025-12-22T05:49:03.780103+00:00", "meta": {"OBJECT_NAME": "FENGYUN 1C DEB", "OBJECT_ID": "1999-025BGM", "EPOCH": "2025-12-21T15:38:43.181952", "MEAN_MOTION": 13.54157583, "ECCENTRICITY": 0.0290311, "INCLINATION": 99.2257, "RA_OF_ASC_NODE": 332.1212, "ARG_OF_PERICENTER": 306.4063, "MEAN_ANOMALY": 51.0619, "EPHEMERIS_TYPE": 0, "CLASSIFICATION_TYPE": "U", "NORAD_CAT_ID": 31091, "ELEMENT_SET_NO": 999, "REV_AT_EPOCH": 61760, "BSTAR": 0.00058305, "MEAN_MOTION_DOT": 4.75e-06, "MEAN_MOTION_DDOT": 0}, "tle": {"line1": "1 31091U 99025BGM 25355.65188868  .00000475  00000+0  58305-3 0  9998", "line2": "2 31091  99.2257 332.1212 0290311 306.4063  51.0619 13.54157583617606"}}, "geometry": {"type": "Point", "coordinates": [-26.87762662610607, -2.763469361578387]}}, {"type": "Feature", "properties": {"norad_id": 31092, "name": "FENGYUN 1C DEB", "group": "fengyun-1c-debris", "lat": 78.27292743912268, "lon": -12.507047980071746, "alt_km": 843.0680086285956, "timestamp": "2025-12-22T05:49:03.780113+00:00", "meta": {"OBJECT_NAME": "FENGYUN 1C DEB", "OBJECT_ID": "1999-025BGN", "EPOCH": "2025-12-21T18:39:08.339040", "MEAN_MOTION": 13.46549924, "ECCENTRICITY": 0.0327272, "INCLINATION": 99.7204, "RA_OF_ASC_NODE": 111.3813, "ARG_OF_PERICENTER": 114.5013, "MEAN_ANOMALY": 249.0613, "EPHEMERIS_TYPE": 0, "CLASSIFICATION_TYPE": "U", "NORAD_CAT_ID": 31092, "ELEMENT_SET_NO": 999, "REV_AT_EPOCH": 92003, "BSTAR": 0.0010559, "MEAN_MOTION_DOT": 8.4e-06, "MEAN_MOTION_DDOT": 0}, "tle": {"line1": "1 31092U 99025BGN 25355.77717985  .00000840  00000+0  10559-2 0  9994", "line2": "2 31092  99.7204 111.3813 0327272 114.5013 249.0613 13.46549924920030"}}, "geometry": {"type": "Point", "coordinates": [-12.507047980071746, 78.27292743912268]}}, {"type": "Feature", "properties": {"norad_id": 31093, "name": "FENGYUN 1C DEB", "group": "fengyun-1c-debris", "lat": -20.400886420146687, "lon": -162.3816220179341, "alt_km": 1086.1693294701208, "timestamp": "2025-12-22T05:49:03.780123+00:00", "meta": {"OBJECT_NAME": "FENGYUN 1C DEB", "OBJECT_ID": "1999-025BGP", "EPOCH": "2025-12-20T19:08:05.890560", "MEAN_MOTION": 13.80639482, "ECCENTRICITY": 0.02083586, "INCLINATION": 98.5945, "RA_OF_ASC_NODE": 193.0786, "ARG_OF_PERICENTER": 201.2976, "MEAN_ANOMALY": 157.9411, "EPHEMERIS_TYPE": 0, "CLASSIFICATION_TYPE": "U", "NORAD_CAT_ID": 31093, "ELEMENT_SET_NO": 999, "REV_AT_EPOCH": 94618, "BSTAR": 0.00028681115, "MEAN_MOTION_DOT": 3.16e-06, "MEAN_MOTION_DDOT": 0}, "tle": {"line1": "1 31093U 99025BGP 25354.79729040  .00000316  00000+0  28681-3 0  9995", "line2": "2 31093  98.5945 193.0786 0208358 201.2976 157.9411 13.80639482946185"}}, "geometry": {"type": "Point", "coordinates": [-162.3816220179341, -20.400886420146687]}}, {"type": "Feature", "properties": {"norad_id": 31094, "name": "FENGYUN 1C DEB", "group": "fengyun-1c-debris", "lat": 62.57679994337321, "lon": 61.31668114727451, "alt_km": 886.81779484252, "timestamp": "2025-12-22T05:49:03.780133+00:00", "meta": {"OBJECT_NAME": "FENGYUN 1C DEB", "OBJECT_ID": "1999-025BGQ", "EPOCH": "2025-12-20T10:27:27.000288", "MEAN_MOTION": 14.02078179, "ECCENTRICITY": 0.01065019, "INCLINATION": 98.8564, "RA_OF_ASC_NODE": 222.0744, "ARG_OF_PERICENTER": 25.7064, "MEAN_ANOMALY": 334.9342, "EPHEMERIS_TYPE": 0, "CLASSIFICATION_TYPE": "U", "NORAD_CAT_ID": 31094, "ELEMENT_SET_NO": 999, "REV_AT_EPOCH": 95727, "BSTAR": 0.0012628369, "MEAN_MOTION_DOT": 1.984e-05, "MEAN_MOTION_DDOT": 0}, "tle": {"line1": "1 31094U 99025BGQ 25354.43572917  .00001984  00000+0  12628-2 0  9991", "line2": "2 31094  98.8564 222.0744 0106501  25.7064 334.9342 14.02078179957274"}}, "geometry": {"type": "Point", "coordinates": [61.31668114727451, 62.57679994337321]}}, {"type": "Feature", "properties": {"norad_id": 31095, "name": "FENGYUN 1C DEB", "group": "fengyun-1c-debris", "lat": -9.09022319489387, "lon": -44.57970344649668, "alt_km": 879.8103508151007, "timestamp": "2025-12-22T05:49:03.780143+00:00", "meta": {"OBJECT_NAME": "FENGYUN 1C DEB", "OBJECT_ID": "1999-025BGR", "EPOCH": "2025-12-21T04:58:39.334080", "MEAN_MOTION": 13.06671319, "ECCENTRICITY": 0.0500106, "INCLINATION": 98.5626, "RA_OF_ASC_NODE": 135.9725, "ARG_OF_PERICENTER": 171.6101, "MEAN_ANOMALY": 189.3778, "EPHEMERIS_TYPE": 0, "CLASSIFICATION_TYPE": "U", "NORAD_CAT_ID": 31095, "ELEMENT_SET_NO": 999, "REV_AT_EPOCH": 89558, "BSTAR": -0.00021833, "MEAN_MOTION_DOT": -1.63e-06, "MEAN_MOTION_DDOT": 0}, "tle": {"line1": "1 31095U 99025BGR 25355.20739970 -.00000163  00000+0 -21833-3 0  9991", "line2": "2 31095  98.5626 135.9725 0500106 171.6101 189.3778 13.06671319895582"}}, "geometry": {"type": "Point", "coordinates": [-44.57970344649668, -9.09022319489387]}}, {"type": "Feature", "properties": {"norad_id": 31097, "name": "FENGYUN 1C DEB", "group": "fengyun-1c-debris", "lat": -72.53679939590461, "lon": -90.26668763456235, "alt_km": 731.3155628451632, "timestamp": "2025-12-22T05:49:03.780153+00:00", "meta": {"OBJECT_NAME": "FENGYUN 1C DEB", "OBJECT_ID": "1999-025BGT", "EPOCH": "2025-12-21T14:20:04.475328", "MEAN_MOTION": 14.47140093, "ECCENTRICITY": 0.0015704, "INCLINATION": 98.8604, "RA_OF_ASC_NODE": 118.784, "ARG_OF_PERICENTER": 244.824, "MEAN_ANOMALY": 250.9795, "EPHEMERIS_TYPE": 0, "CLASSIFICATION_TYPE": "U", "NORAD_CAT_ID": 31097, "ELEMENT_SET_NO": 999, "REV_AT_EPOCH": 97166, "BSTAR": 0.0021458, "MEAN_MOTION_DOT": 7.799e-05, "MEAN_MOTION_DDOT": 0}, "tle": {"line1": "1 31097U 99025BGT 25355.59727402  .00007799  00000+0  21458-2 0  9994", "line2": "2 31097  98.8604 118.7840 0015704 244.8240 250.9795 14.47140093971666"}}, "geometry": {"type": "Point", "coordinates": [-90.26668763456235, -72.53679939590461]}}, {"type": "Feature", "properties": {"norad_id": 31098, "name": "FENGYUN 1C DEB", "group": "fengyun-1c-debris", "lat": -77.80304981067265, "lon": 160.97847037063144, "alt_km": 721.0557408150362, "timestamp": "2025-12-22T05:49:03.780164+00:00", "meta": {"OBJECT_NAME": "FENGYUN 1C DEB", "OBJECT_ID": "1999-025BGU", "EPOCH": "2025-12-21T07:02:05.085024", "MEAN_MOTION": 14.51703488, "ECCENTRICITY": 0.0015376, "INCLINATION": 98.8704, "RA_OF_ASC_NODE": 113.716, "ARG_OF_PERICENTER": 226.3657, "MEAN_ANOMALY": 133.6262, "EPHEMERIS_TYPE": 0, "CLASSIFICATION_TYPE": "U", "NORAD_CAT_ID": 31098, "ELEMENT_SET_NO": 999, "REV_AT_EPOCH": 97081, "BSTAR": 0.0022928, "MEAN_MOTION_DOT": 9.18e-05, "MEAN_MOTION_DDOT": 0}, "tle": {"line1": "1 31098U 99025BGU 25355.29311441  .00009180  00000+0  22928-2 0  9993", "line2": "2 31098  98.8704 113.7160 0015376 226.3657 133.6262 14.51703488970810"}}, "geometry": {"type": "Point", "coordinates": [160.97847037063144, -77.80304981067265]}}, {"type": "Feature", "properties": {"norad_id": 31099, "name": "FENGYUN 1C DEB", "group": "fengyun-1c-debris", "lat": 15.311348007693894, "lon": -113.5259562119068, "alt_km": 822.9780141982401, "timestamp": "2025-12-22T05:49:03.780174+00:00", "meta": {"OBJECT_NAME": "FENGYUN 1C DEB", "OBJECT_ID": "1999-025BGV", "EPOCH": "2025-12-21T16:23:22.528032", "MEAN_MOTION": 14.27933834, "ECCENTRICITY": 0.0062451, "INCLINATION": 98.9381, "RA_OF_ASC_NODE": 248.3712, "ARG_OF_PERICENTER": 255.1571, "MEAN_ANOMALY": 125.2998, "EPHEMERIS_TYPE": 0, "CLASSIFICATION_TYPE": "U", "NORAD_CAT_ID": 31099, "ELEMENT_SET_NO": 999, "REV_AT_EPOCH": 97599, "BSTAR": 0.00022474, "MEAN_MOTION_DOT": 5.21e-06, "MEAN_MOTION_DDOT": 0}, "tle": {"line1": "1 31099U 99025BGV 25355.68289963  .00000521  00000+0  22474-3 0  9997", "line2": "2 31099  98.9381 248.3712 0062451 255.1571 125.2998 14.27933834975992"}}, "geometry": {"type": "Point", "coordinates": [-113.5259562119068, 15.311348007693894]}}, {"type": "Feature", "properties": {"norad_id": 31146, "name": "FENGYUN 1C DEB", "group": "fengyun-1c-debris", "lat": -49.04268058898483, "lon": 96.77261649440413, "alt_km": 803.5982887518257, "timestamp": "2025-12-22T05:49:03.780185+00:00", "meta": {"OBJECT_NAME": "FENGYUN 1C DEB", "OBJECT_ID": "1999-025BGY", "EPOCH": "2025-12-21T18:40:17.956704", "MEAN_MOTION": 14.27721431, "ECCENTRICITY": 0.0212993, "INCLINATION": 99.0426, "RA_OF_ASC_NODE": 286.8638, "ARG_OF_PERICENTER": 140.8863, "MEAN_ANOMALY": 220.7935, "EPHEMERIS_TYPE": 0, "CLASSIFICATION_TYPE": "U", "NORAD_CAT_ID": 31146, "ELEMENT_SET_NO": 999, "REV_AT_EPOCH": 96894, "BSTAR": 0.00024885, "MEAN_MOTION_DOT": 7.31e-06, "MEAN_MOTION_DDOT": 0}, "tle": {"line1": "1 31146U 99025BGY 25355.77798561  .00000731  00000+0  24885-3 0  9990", "line2": "2 31146  99.0426 286.8638 0212993 140.8863 220.7935 14.27721431968940"}}, "geometry": {"type": "Point", "coordinates": [96.77261649440413, -49.04268058898483]}}, {"type": "Feature", "properties": {"norad_id": 31148, "name": "FENGYUN 1C DEB", "group": "fengyun-1c-debris", "lat": -30.667235892638455, "lon": 56.88828933407072, "alt_km": 849.4328208930938, "timestamp": "2025-12-22T05:49:03.780195+00:00", "meta": {"OBJECT_NAME": "FENGYUN 1C DEB", "OBJECT_ID": "1999-025BHA", "EPOCH": "2025-12-19T10:17:53.585088", "MEAN_MOTION": 14.43396116, "ECCENTRICITY": 0.0136538, "INCLINATION": 98.8661, "RA_OF_ASC_NODE": 239.2709, "ARG_OF_PERICENTER": 30.9307, "MEAN_ANOMALY": 329.9834, "EPHEMERIS_TYPE": 0, "CLASSIFICATION_TYPE": "U", "NORAD_CAT_ID": 31148, "ELEMENT_SET_NO": 999, "REV_AT_EPOCH": 97627, "BSTAR": 0.00061013, "MEAN_MOTION_DOT": 2.253e-05, "MEAN_MOTION_DDOT": 0}, "tle": {"line1": "1 31148U 99025BHA 25353.42909242  .00002253  00000+0  61013-3 0  9997", "line2": "2 31148  98.8661 239.2709 0136538  30.9307 329.9834 14.43396116976274"}}, "geometry": {"type": "Point", "coordinates": [56.88828933407072, -30.667235892638455]}}]}